{"type": "FeatureCollection", "features": [{"type": "Feature", "geometry": {"type": "Polygon", "coordinates": [[[16.839111024356193, 48.25274758150852], [16.83951140026924, 48.25270811945162], [16.83950874781693, 48.25279753940017], [16.839111024356193, 48.25274758150852]]]}, "properties": {"timestamp": 36, "confidence": 0.891, "label": "speech"}}, {"type": "Feature", "geometry": {"type": "Polygon", "coordinates": [[[16.83971625243562, 48.252779368150854], [16.839312162480905, 48.25276411680184], [16.839332407335046, 48.25269390025585], [16.83971625243562, 48.252779368150854]]]}, "properties": {"timestamp": 36, "confidence": 0.618, "label": "speech"}}, {"type": "Feature", "geometry": {"type": "Polygon", "coordinates": [[[16.83971625243562, 48.252779368150854], [16.839795807639163, 48.25251513210003], [16.839906188188138, 48.25254139220814], [16.83971625243562, 48.252779368150854]]]}, "properties": {"timestamp": 44, "confidence": 0.723, "label": "speech"}}, {"type": "Feature", "geometry": {"type": "Polygon", "coordinates": [[[16.83971625243562, 48.252779368150854], [16.84011446465228, 48.252731167324804], [16.840120248156367, 48.25279568882387], [16.83971625243562, 48.252779368150854]]]}, "properties": {"timestamp": 52, "confidence": 0.812, "label": "rattle"}}, {"type": "Feature", "geometry": {"type": "Polygon", "coordinates": [[[16.840321480515044, 48.252811154793186], [16.83991811389992, 48.25278898388708], [16.839955966921163, 48.252695417997046], [16.840321480515044, 48.252811154793186]]]}, "properties": {"timestamp": 52, "confidence": 0.671, "label": "rattle"}}, {"type": "Feature", "geometry": {"type": "Polygon", "coordinates": [[[16.83971625243562, 48.252779368150854], [16.840119438027624, 48.25280295374465], [16.840089348921527, 48.252883828144775], [16.83971625243562, 48.252779368150854]]]}, "properties": {"timestamp": 60, "confidence": 0.881, "label": "speech"}}, {"type": "Feature", "geometry": {"type": "Polygon", "coordinates": [[[16.840321480515044, 48.252811154793186], [16.839926637491807, 48.25287038258992], [16.839917666334948, 48.252792950897614], [16.840321480515044, 48.252811154793186]]]}, "properties": {"timestamp": 60, "confidence": 0.69, "label": "speech"}}, {"type": "Feature", "geometry": {"type": "Polygon", "coordinates": [[[16.840321480515044, 48.252811154793186], [16.83999792485705, 48.25297305942919], [16.839935693581726, 48.25289265433778], [16.840321480515044, 48.252811154793186]]]}, "properties": {"timestamp": 65, "confidence": 0.7, "label": "speech"}}, {"type": "Feature", "geometry": {"type": "Polygon", "coordinates": [[[16.840321480515044, 48.252811154793186], [16.839940989753245, 48.25290303210548], [16.83991718023658, 48.25279861590842], [16.840321480515044, 48.252811154793186]]]}, "properties": {"timestamp": 69, "confidence": 0.764, "label": "speech"}}, {"type": "Feature", "geometry": {"type": "Polygon", "coordinates": [[[16.840321480515044, 48.252811154793186], [16.840695893182215, 48.252708803940926], [16.840726050135263, 48.25280336799087], [16.840321480515044, 48.252811154793186]]]}, "properties": {"timestamp": 76, "confidence": 0.78, "label": "vandalism"}}, {"type": "Feature", "geometry": {"type": "Polygon", "coordinates": [[[16.840321480515044, 48.252811154793186], [16.840690579001983, 48.25270057703388], [16.840723829281465, 48.25278191203496], [16.840321480515044, 48.252811154793186]]]}, "properties": {"timestamp": 86, "confidence": 0.83, "label": "vandalism"}}, {"type": "Feature", "geometry": {"type": "Polygon", "coordinates": [[[16.840321480515044, 48.252811154793186], [16.840704474818466, 48.25272401115491], [16.840725624990647, 48.25279655797401], [16.840321480515044, 48.252811154793186]]]}, "properties": {"timestamp": 96, "confidence": 0.708, "label": "vandalism"}}, {"type": "Feature", "geometry": {"type": "Polygon", "coordinates": [[[16.840321480515044, 48.252811154793186], [16.840697581159645, 48.2527115855256], [16.84072320294584, 48.25277831551472], [16.840321480515044, 48.252811154793186]]]}, "properties": {"timestamp": 106, "confidence": 0.618, "label": "vandalism"}}]}