{"type": "FeatureCollection", "features": [{"type": "Feature", "geometry": {"type": "Polygon", "coordinates": [[[16.838838555397572, 48.252653419880446], [16.838836223073727, 48.25265780289317], [16.838830911908058, 48.25266082220995], [16.83882404502312, 48.252661668807285], [16.838817462395184, 48.252660115840115], [16.838812927834088, 48.25265657942473], [16.838811656371817, 48.25265200714079], [16.838813988695662, 48.252647624128066], [16.83881929986133, 48.252644604811294], [16.83882616674627, 48.25264375821395], [16.838832749374205, 48.25264531118112], [16.8388372839353, 48.252648847596504], [16.838838555397572, 48.252653419880446]]]}, "properties": {"timestamp": 0.53, "confidence": 0.755, "label": "unknown"}}, {"type": "Feature", "geometry": {"type": "Polygon", "coordinates": [[[16.838852398442402, 48.252653204417555], [16.838850066118557, 48.25265758743028], [16.838844754952888, 48.25266060674706], [16.83883788806795, 48.252661453344395], [16.838831305440014, 48.252659900377225], [16.838826770878917, 48.25265636396185], [16.838825499416647, 48.2526517916779], [16.838827831740492, 48.252647408665176], [16.83883314290616, 48.252644389348404], [16.8388400097911, 48.252643542751066], [16.838846592419035, 48.252645095718236], [16.83885112698013, 48.252648632133614], [16.838852398442402, 48.252653204417555]]]}, "properties": {"timestamp": 0.69, "confidence": 0.768, "label": "unknown"}}, {"type": "Feature", "geometry": {"type": "Polygon", "coordinates": [[[16.838876270616822, 48.25266678420651], [16.83887393829298, 48.25267116721923], [16.83886862712731, 48.252674186536005], [16.838861760242374, 48.25267503313335], [16.838855177614438, 48.25267348016618], [16.83885064305334, 48.252669943750796], [16.83884937159107, 48.252665371466854], [16.838851703914916, 48.25266098845413], [16.83885701508058, 48.25265796913735], [16.838863881965523, 48.252657122540015], [16.83887046459346, 48.252658675507185], [16.838874999154555, 48.25266221192256], [16.838876270616822, 48.25266678420651]]]}, "properties": {"timestamp": 2.4, "confidence": 0.687, "label": "unknown"}}, {"type": "Feature", "geometry": {"type": "Polygon", "coordinates": [[[16.838888393663332, 48.252652702443235], [16.838886061339487, 48.25265708545595], [16.83888075017382, 48.25266010477273], [16.83887388328888, 48.25266095137007], [16.838867300660944, 48.2526593984029], [16.838862766099847, 48.25265586198752], [16.83886149463758, 48.25265128970357], [16.838863826961422, 48.252646906690856], [16.83886913812709, 48.25264388737408], [16.83887600501203, 48.25264304077674], [16.838882587639965, 48.25264459374391], [16.83888712220106, 48.25264813015929], [16.838888393663332, 48.252652702443235]]]}, "properties": {"timestamp": 2.76, "confidence": 0.7, "label": "unknown"}}, {"type": "Feature", "geometry": {"type": "Polygon", "coordinates": [[[16.83891491485533, 48.25267526014866], [16.838912582531485, 48.252679643161386], [16.83890727136582, 48.25268266247816], [16.838900404480878, 48.2526835090755], [16.838893821852942, 48.25268195610833], [16.83888928729185, 48.25267841969295], [16.83888801582958, 48.25267384740901], [16.83889034815342, 48.252669464396284], [16.83889565931909, 48.25266644507951], [16.838902526204027, 48.25266559848217], [16.838909108831967, 48.25266715144934], [16.83891364339306, 48.25267068786472], [16.83891491485533, 48.25267526014866]]]}, "properties": {"timestamp": 4.78, "confidence": 0.763, "label": "unknown"}}, {"type": "Feature", "geometry": {"type": "Polygon", "coordinates": [[[16.838920859856454, 48.25265809772901], [16.83891852753261, 48.25266248074173], [16.838913216366944, 48.25266550005851], [16.838906349482006, 48.25266634665585], [16.838899766854066, 48.25266479368868], [16.838895232292973, 48.2526612572733], [16.838893960830703, 48.252656684989354], [16.838896293154548, 48.25265230197663], [16.838901604320213, 48.25264928265986], [16.83890847120515, 48.252648436062515], [16.83891505383309, 48.252649989029685], [16.838919588394184, 48.25265352544507], [16.838920859856454, 48.25265809772901]]]}, "properties": {"timestamp": 4.8, "confidence": 0.706, "label": "unknown"}}, {"type": "Feature", "geometry": {"type": "Polygon", "coordinates": [[[16.83893543834274, 48.252681344724955], [16.838933106018896, 48.25268572773767], [16.83892779485323, 48.25268874705445], [16.83892092796829, 48.25268959365179], [16.838914345340353, 48.25268804068462], [16.838909810779256, 48.25268450426924], [16.83890853931699, 48.25267993198529], [16.83891087164083, 48.252675548972576], [16.8389161828065, 48.2526725296558], [16.838923049691438, 48.25267168305846], [16.838929632319374, 48.25267323602563], [16.83893416688047, 48.252676772441006], [16.83893543834274, 48.252681344724955]]]}, "properties": {"timestamp": 7.06, "confidence": 0.792, "label": "unknown"}}, {"type": "Feature", "geometry": {"type": "Polygon", "coordinates": [[[16.838977732547104, 48.252660975516676], [16.83897540022326, 48.25266535852939], [16.838970089057593, 48.25266837784617], [16.838963222172655, 48.25266922444351], [16.838956639544715, 48.25266767147634], [16.838952104983623, 48.25266413506096], [16.838950833521352, 48.25265956277701], [16.838953165845197, 48.2526551797643], [16.838958477010863, 48.25265216044752], [16.8389653438958, 48.25265131385018], [16.83897192652374, 48.25265286681735], [16.838976461084833, 48.25265640323273], [16.838977732547104, 48.252660975516676]]]}, "properties": {"timestamp": 7.2, "confidence": 0.624, "label": "unknown"}}, {"type": "Feature", "geometry": {"type": "Polygon", "coordinates": [[[16.83899535331626, 48.252668596067906], [16.838993020992415, 48.25267297908063], [16.83898770982675, 48.2526759983974], [16.838980842941808, 48.25267684499474], [16.838974260313872, 48.25267529202757], [16.83896972575278, 48.25267175561219], [16.83896845429051, 48.25266718332825], [16.83897078661435, 48.25266280031553], [16.83897609778002, 48.25265978099875], [16.838982964664957, 48.25265893440141], [16.838989547292897, 48.25266048736858], [16.83899408185399, 48.25266402378396], [16.83899535331626, 48.252668596067906]]]}, "properties": {"timestamp": 8.93, "confidence": 0.62, "label": "unknown"}}, {"type": "Feature", "geometry": {"type": "Polygon", "coordinates": [[[16.838994750960584, 48.25268265271061], [16.83899241863674, 48.25268703572333], [16.838987107471073, 48.252690055040105], [16.83898024058613, 48.25269090163744], [16.838973657958196, 48.25268934867028], [16.8389691233971, 48.252685812254896], [16.838967851934832, 48.252681239970954], [16.838970184258674, 48.25267685695823], [16.838975495424343, 48.25267383764145], [16.83898236230928, 48.252672991044115], [16.838988944937217, 48.252674544011285], [16.838993479498313, 48.25267808042666], [16.838994750960584, 48.25268265271061]]]}, "properties": {"timestamp": 9.41, "confidence": 0.727, "label": "unknown"}}, {"type": "Feature", "geometry": {"type": "Polygon", "coordinates": [[[16.839027373199578, 48.25266429209534], [16.839025040875732, 48.252668675108055], [16.839019729710067, 48.25267169442483], [16.839012862825125, 48.25267254102217], [16.83900628019719, 48.252670988055], [16.839001745636093, 48.252667451639624], [16.839000474173826, 48.252662879355675], [16.839002806497668, 48.25265849634296], [16.839008117663337, 48.25265547702618], [16.839014984548275, 48.25265463042884], [16.83902156717621, 48.25265618339601], [16.839026101737307, 48.25265971981139], [16.839027373199578, 48.25266429209534]]]}, "properties": {"timestamp": 10.66, "confidence": 0.723, "label": "unknown"}}, {"type": "Feature", "geometry": {"type": "Polygon", "coordinates": [[[16.839033185300316, 48.25268563807209], [16.839030852976475, 48.2526900210848], [16.839025541810805, 48.25269304040158], [16.839018674925867, 48.25269388699892], [16.83901209229793, 48.25269233403175], [16.839007557736835, 48.25268879761637], [16.839006286274564, 48.25268422533242], [16.83900861859841, 48.25267984231971], [16.839013929764075, 48.25267682300293], [16.839020796649017, 48.25267597640559], [16.839027379276953, 48.25267752937276], [16.839031913838046, 48.25268106578814], [16.839033185300316, 48.25268563807209]]]}, "properties": {"timestamp": 11.3, "confidence": 0.687, "label": "unknown"}}, {"type": "Feature", "geometry": {"type": "Polygon", "coordinates": [[[16.839067948871207, 48.2526785479869], [16.839065616547366, 48.252682930999626], [16.839060305381697, 48.252685950316405], [16.83905343849676, 48.25268679691374], [16.839046855868823, 48.25268524394657], [16.839042321307726, 48.252681707531195], [16.839041049845456, 48.25267713524725], [16.8390433821693, 48.252672752234524], [16.839048693334966, 48.25266973291775], [16.839055560219908, 48.252668886320414], [16.839062142847844, 48.252670439287584], [16.83906667740894, 48.25267397570296], [16.839067948871207, 48.2526785479869]]]}, "properties": {"timestamp": 12.91, "confidence": 0.754, "label": "unknown"}}, {"type": "Feature", "geometry": {"type": "Polygon", "coordinates": [[[16.83906104960514, 48.25269404582129], [16.839058717281297, 48.252698428834016], [16.839053406115628, 48.25270144815079], [16.83904653923069, 48.25270229474813], [16.839039956602754, 48.25270074178096], [16.839035422041658, 48.25269720536558], [16.839034150579387, 48.25269263308164], [16.839036482903232, 48.252688250068914], [16.839041794068898, 48.252685230752135], [16.83904866095384, 48.2526843841548], [16.839055243581775, 48.25268593712197], [16.83905977814287, 48.25268947353735], [16.83906104960514, 48.25269404582129]]]}, "properties": {"timestamp": 13.3, "confidence": 0.794, "label": "unknown"}}, {"type": "Feature", "geometry": {"type": "Polygon", "coordinates": [[[16.839103578256708, 48.25268146824347], [16.839101245932863, 48.25268585125619], [16.839095934767194, 48.25268887057297], [16.839089067882256, 48.252689717170306], [16.83908248525432, 48.252688164203136], [16.839077950693223, 48.25268462778776], [16.839076679230953, 48.25268005550381], [16.839079011554798, 48.252675672491094], [16.839084322720467, 48.252672653174315], [16.839091189605405, 48.25267180657698], [16.83909777223334, 48.25267335954415], [16.839102306794437, 48.252676895959524], [16.839103578256708, 48.25268146824347]]]}, "properties": {"timestamp": 14.77, "confidence": 0.634, "label": "unknown"}}, {"type": "Feature", "geometry": {"type": "Polygon", "coordinates": [[[16.839101391799144, 48.2527027310716], [16.839099059475302, 48.252707114084316], [16.839093748309633, 48.252710133401095], [16.839086881424695, 48.25271097999843], [16.83908029879676, 48.25270942703126], [16.839075764235663, 48.252705890615886], [16.839074492773392, 48.25270131833194], [16.839076825097237, 48.25269693531922], [16.839082136262903, 48.25269391600244], [16.839089003147844, 48.252693069405105], [16.83909558577578, 48.252694622372275], [16.839100120336877, 48.25269815878765], [16.839101391799144, 48.2527027310716]]]}, "properties": {"timestamp": 15.52, "confidence": 0.762, "label": "unknown"}}, {"type": "Feature", "geometry": {"type": "Polygon", "coordinates": [[[16.83912846807316, 48.25269414339883], [16.839126135749314, 48.25269852641154], [16.83912082458365, 48.25270154572832], [16.83911395769871, 48.25270239232566], [16.83910737507077, 48.25270083935849], [16.83910284050968, 48.25269730294311], [16.839101569047408, 48.25269273065916], [16.839103901371253, 48.25268834764645], [16.83910921253692, 48.25268532832967], [16.839116079421856, 48.25268448173233], [16.839122662049796, 48.2526860346995], [16.83912719661089, 48.25268957111488], [16.83912846807316, 48.25269414339883]]]}, "properties": {"timestamp": 16.58, "confidence": 0.716, "label": "unknown"}}, {"type": "Feature", "geometry": {"type": "Polygon", "coordinates": [[[16.839139143341992, 48.25270296803994], [16.83913681101815, 48.252707351052656], [16.83913149985248, 48.252710370369435], [16.839124632967543, 48.25271121696677], [16.839118050339607, 48.2527096639996], [16.83911351577851, 48.252706127584226], [16.83911224431624, 48.25270155530028], [16.839114576640085, 48.25269717228756], [16.83911988780575, 48.25269415297078], [16.839126754690692, 48.252693306373445], [16.83913333731863, 48.252694859340615], [16.839137871879725, 48.25269839575599], [16.839139143341992, 48.25270296803994]]]}, "properties": {"timestamp": 17.83, "confidence": 0.728, "label": "unknown"}}, {"type": "Feature", "geometry": {"type": "Polygon", "coordinates": [[[16.839178197786065, 48.252687264390254], [16.839175865462224, 48.252691647402976], [16.839170554296555, 48.252694666719755], [16.839163687411617, 48.25269551331709], [16.83915710478368, 48.25269396034992], [16.839152570222584, 48.252690423934546], [16.839151298760314, 48.2526858516506], [16.83915363108416, 48.252681468637874], [16.839158942249824, 48.2526784493211], [16.839165809134766, 48.252677602723764], [16.839172391762702, 48.252679155690934], [16.8391769263238, 48.25268269210631], [16.839178197786065, 48.252687264390254]]]}, "properties": {"timestamp": 18.46, "confidence": 0.611, "label": "unknown"}}, {"type": "Feature", "geometry": {"type": "Polygon", "coordinates": [[[16.839174388027672, 48.25270491390452], [16.83917205570383, 48.25270929691724], [16.83916674453816, 48.25271231623402], [16.839159877653223, 48.252713162831355], [16.839153295025287, 48.252711609864186], [16.83914876046419, 48.25270807344881], [16.83914748900192, 48.25270350116486], [16.839149821325766, 48.252699118152144], [16.83915513249143, 48.252696098835365], [16.839161999376373, 48.25269525223803], [16.83916858200431, 48.2526968052052], [16.839173116565405, 48.252700341620574], [16.839174388027672, 48.25270491390452]]]}, "properties": {"timestamp": 19.64, "confidence": 0.708, "label": "unknown"}}, {"type": "Feature", "geometry": {"type": "Polygon", "coordinates": [[[16.839213818904785, 48.25268671015085], [16.83921148658094, 48.25269109316357], [16.839206175415274, 48.25269411248034], [16.839199308530336, 48.25269495907768], [16.839192725902397, 48.25269340611051], [16.839188191341304, 48.25268986969513], [16.839186919879033, 48.25268529741119], [16.83918925220288, 48.25268091439847], [16.839194563368544, 48.25267789508169], [16.839201430253482, 48.25267704848435], [16.83920801288142, 48.25267860145152], [16.839212547442514, 48.2526821378669], [16.839213818904785, 48.25268671015085]]]}, "properties": {"timestamp": 20.77, "confidence": 0.688, "label": "unknown"}}, {"type": "Feature", "geometry": {"type": "Polygon", "coordinates": [[[16.839212727373894, 48.25270931058526], [16.839210395050053, 48.25271369359798], [16.839205083884384, 48.25271671291476], [16.839198216999446, 48.2527175595121], [16.83919163437151, 48.25271600654493], [16.839187099810413, 48.25271247012955], [16.839185828348143, 48.2527078978456], [16.839188160671988, 48.25270351483288], [16.839193471837657, 48.25270049551611], [16.839200338722595, 48.25269964891877], [16.83920692135053, 48.252701201885934], [16.839211455911627, 48.25270473830132], [16.839212727373894, 48.25270931058526]]]}, "properties": {"timestamp": 21.98, "confidence": 0.704, "label": "unknown"}}, {"type": "Feature", "geometry": {"type": "Polygon", "coordinates": [[[16.839239673392303, 48.25270093432949], [16.83923734106846, 48.25270531734221], [16.839232029902792, 48.25270833665899], [16.839225163017854, 48.25270918325633], [16.839218580389918, 48.25270763028916], [16.83921404582882, 48.252704093873774], [16.83921277436655, 48.25269952158983], [16.839215106690396, 48.25269513857711], [16.839220417856062, 48.25269211926034], [16.839227284741003, 48.25269127266299], [16.83923386736894, 48.25269282563016], [16.839238401930032, 48.25269636204555], [16.839239673392303, 48.25270093432949]]]}, "properties": {"timestamp": 22.87, "confidence": 0.786, "label": "unknown"}}, {"type": "Feature", "geometry": {"type": "Polygon", "coordinates": [[[16.839248198788077, 48.252719925368936], [16.839245866464232, 48.25272430838165], [16.839240555298563, 48.25272732769843], [16.839233688413625, 48.25272817429577], [16.83922710578569, 48.2527266213286], [16.839222571224592, 48.25272308491322], [16.839221299762322, 48.25271851262927], [16.839223632086167, 48.25271412961656], [16.839228943251836, 48.25271111029978], [16.839235810136774, 48.25271026370244], [16.83924239276471, 48.25271181666961], [16.839246927325807, 48.25271535308499], [16.839248198788077, 48.252719925368936]]]}, "properties": {"timestamp": 23.93, "confidence": 0.661, "label": "unknown"}}, {"type": "Feature", "geometry": {"type": "Polygon", "coordinates": [[[16.83929149228351, 48.25270304665264], [16.839289159959666, 48.25270742966536], [16.839283848794, 48.252710448982135], [16.83927698190906, 48.25271129557947], [16.839270399281123, 48.2527097426123], [16.839265864720026, 48.252706206196926], [16.83926459325776, 48.25270163391298], [16.8392669255816, 48.25269725090026], [16.83927223674727, 48.25269423158348], [16.839279103632208, 48.252693384986145], [16.839285686260144, 48.252694937953315], [16.83929022082124, 48.25269847436869], [16.83929149228351, 48.25270304665264]]]}, "properties": {"timestamp": 25.15, "confidence": 0.763, "label": "unknown"}}, {"type": "Feature", "geometry": {"type": "Polygon", "coordinates": [[[16.839287867456374, 48.25272585804415], [16.839285535132532, 48.25273024105687], [16.839280223966863, 48.252733260373645], [16.839273357081925, 48.25273410697098], [16.83926677445399, 48.25273255400381], [16.839262239892893, 48.252729017588436], [16.839260968430622, 48.25272444530449], [16.839263300754467, 48.25272006229177], [16.839268611920133, 48.25271704297499], [16.839275478805074, 48.252716196377655], [16.83928206143301, 48.252717749344825], [16.839286595994107, 48.2527212857602], [16.839287867456374, 48.25272585804415]]]}, "properties": {"timestamp": 26.05, "confidence": 0.791, "label": "unknown"}}, {"type": "Feature", "geometry": {"type": "Polygon", "coordinates": [[[16.83933632271824, 48.252702674444485], [16.839333990394394, 48.25270705745721], [16.83932867922873, 48.25271007677398], [16.83932181234379, 48.252710923371325], [16.83931522971585, 48.252709370404155], [16.839310695154758, 48.25270583398877], [16.839309423692487, 48.25270126170483], [16.83931175601633, 48.252696878692106], [16.839317067181998, 48.25269385937533], [16.839323934066936, 48.25269301277799], [16.839330516694876, 48.25269456574516], [16.83933505125597, 48.25269810216054], [16.83933632271824, 48.252702674444485]]]}, "properties": {"timestamp": 26.99, "confidence": 0.699, "label": "unknown"}}, {"type": "Feature", "geometry": {"type": "Polygon", "coordinates": [[[16.839332347295198, 48.25272604101469], [16.839330014971353, 48.25273042402741], [16.839324703805687, 48.25273344334419], [16.839317836920745, 48.25273428994153], [16.83931125429281, 48.25273273697436], [16.839306719731713, 48.25272920055898], [16.839305448269446, 48.25272462827503], [16.839307780593288, 48.25272024526231], [16.839313091758957, 48.25271722594554], [16.839319958643895, 48.2527163793482], [16.83932654127183, 48.25271793231536], [16.839331075832927, 48.25272146873075], [16.839332347295198, 48.25272604101469]]]}, "properties": {"timestamp": 28.06, "confidence": 0.707, "label": "unknown"}}, {"type": "Feature", "geometry": {"type": "Polygon", "coordinates": [[[16.83935401008376, 48.25271626531631], [16.839351677759915, 48.25272064832903], [16.83934636659425, 48.25272366764581], [16.839339499709308, 48.25272451424315], [16.83933291708137, 48.25272296127598], [16.839328382520275, 48.252719424860594], [16.839327111058008, 48.25271485257665], [16.83932944338185, 48.25271046956393], [16.83933475454752, 48.25270745024716], [16.839341621432457, 48.25270660364981], [16.839348204060393, 48.25270815661698], [16.83935273862149, 48.25271169303237], [16.83935401008376, 48.25271626531631]]]}, "properties": {"timestamp": 29.35, "confidence": 0.744, "label": "unknown"}}, {"type": "Feature", "geometry": {"type": "Polygon", "coordinates": [[[16.839364143392586, 48.252732416030106], [16.839361811068745, 48.25273679904283], [16.839356499903076, 48.2527398183596], [16.839349633018138, 48.252740664956946], [16.8393430503902, 48.252739111989776], [16.839338515829105, 48.25273557557439], [16.839337244366835, 48.25273100329045], [16.83933957669068, 48.25272662027773], [16.839344887856345, 48.25272360096095], [16.839351754741287, 48.25272275436361], [16.839358337369223, 48.25272430733078], [16.83936287193032, 48.25272784374616], [16.839364143392586, 48.252732416030106]]]}, "properties": {"timestamp": 29.78, "confidence": 0.659, "label": "unknown"}}, {"type": "Feature", "geometry": {"type": "Polygon", "coordinates": [[[16.839403177298426, 48.25271781164627], [16.83940084497458, 48.25272219465899], [16.839395533808915, 48.252725213975765], [16.839388666923973, 48.25272606057311], [16.839382084296037, 48.25272450760594], [16.83937754973494, 48.252720971190556], [16.839376278272674, 48.252716398906614], [16.839378610596516, 48.25271201589389], [16.839383921762185, 48.25270899657711], [16.839390788647123, 48.252708149979775], [16.83939737127506, 48.252709702946945], [16.839401905836155, 48.25271323936233], [16.839403177298426, 48.25271781164627]]]}, "properties": {"timestamp": 31.13, "confidence": 0.697, "label": "unknown"}}, {"type": "Feature", "geometry": {"type": "Polygon", "coordinates": [[[16.839393932975177, 48.252734186829294], [16.839391600651332, 48.252738569842016], [16.839386289485663, 48.252741589158795], [16.839379422600725, 48.25274243575613], [16.83937283997279, 48.25274088278896], [16.839368305411693, 48.252737346373586], [16.839367033949422, 48.25273277408964], [16.839369366273267, 48.252728391076914], [16.839374677438936, 48.25272537176014], [16.839381544323874, 48.252724525162805], [16.83938812695181, 48.252726078129974], [16.839392661512907, 48.25272961454535], [16.839393932975177, 48.252734186829294]]]}, "properties": {"timestamp": 31.7, "confidence": 0.618, "label": "unknown"}}, {"type": "Feature", "geometry": {"type": "Polygon", "coordinates": [[[16.839464343045538, 48.25272570374002], [16.839462010721697, 48.25273008675274], [16.839456699556028, 48.25273310606951], [16.83944983267109, 48.25273395266686], [16.83944325004315, 48.25273239969969], [16.839438715482057, 48.252728863284304], [16.839437444019786, 48.25272429100036], [16.83943977634363, 48.25271990798764], [16.839445087509297, 48.25271688867087], [16.83945195439424, 48.25271604207352], [16.839458537022175, 48.25271759504069], [16.839463071583268, 48.25272113145608], [16.839464343045538, 48.25272570374002]]]}, "properties": {"timestamp": 33.36, "confidence": 0.672, "label": "unknown"}}, {"type": "Feature", "geometry": {"type": "Polygon", "coordinates": [[[16.83945201735059, 48.252741761923744], [16.839449685026747, 48.25274614493646], [16.839444373861078, 48.25274916425324], [16.83943750697614, 48.252750010850576], [16.839430924348203, 48.252748457883406], [16.839426389787107, 48.25274492146803], [16.839425118324836, 48.25274034918408], [16.83942745064868, 48.252735966171365], [16.83943276181435, 48.252732946854586], [16.83943962869929, 48.25273210025725], [16.839446211327225, 48.25273365322442], [16.83945074588832, 48.252737189639795], [16.83945201735059, 48.252741761923744]]]}, "properties": {"timestamp": 33.74, "confidence": 0.714, "label": "unknown"}}, {"type": "Feature", "geometry": {"type": "Polygon", "coordinates": [[[16.83950643086195, 48.25273147351401], [16.839504098538107, 48.25273585652673], [16.839498787372438, 48.25273887584351], [16.8394919204875, 48.25273972244085], [16.83948533785956, 48.25273816947368], [16.839480803298468, 48.2527346330583], [16.839479531836197, 48.252730060774354], [16.839481864160042, 48.25272567776163], [16.839487175325708, 48.25272265844486], [16.83949404221065, 48.252721811847515], [16.839500624838585, 48.252723364814685], [16.83950515939968, 48.25272690123007], [16.83950643086195, 48.25273147351401]]]}, "properties": {"timestamp": 35.11, "confidence": 0.712, "label": "unknown"}}, {"type": "Feature", "geometry": {"type": "Polygon", "coordinates": [[[16.839501470368205, 48.25274319593774], [16.83949913804436, 48.25274757895046], [16.839493826878694, 48.252750598267234], [16.839486959993753, 48.25275144486457], [16.839480377365817, 48.2527498918974], [16.83947584280472, 48.252746355482024], [16.839474571342453, 48.252741783198076], [16.839476903666295, 48.25273740018536], [16.839482214831964, 48.25273438086858], [16.839489081716902, 48.25273353427124], [16.839495664344838, 48.25273508723841], [16.839500198905935, 48.25273862365379], [16.839501470368205, 48.25274319593774]]]}, "properties": {"timestamp": 35.86, "confidence": 0.692, "label": "unknown"}}, {"type": "Feature", "geometry": {"type": "Polygon", "coordinates": [[[16.839551704881483, 48.25272582912522], [16.83954937255764, 48.25273021213794], [16.839544061391972, 48.25273323145472], [16.839537194507034, 48.25273407805206], [16.839530611879095, 48.25273252508489], [16.839526077318002, 48.25272898866951], [16.83952480585573, 48.25272441638556], [16.839527138179577, 48.25272003337284], [16.839532449345242, 48.25271701405607], [16.839539316230184, 48.25271616745872], [16.83954589885812, 48.25271772042589], [16.839550433419213, 48.252721256841276], [16.839551704881483, 48.25272582912522]]]}, "properties": {"timestamp": 36.81, "confidence": 0.681, "label": "unknown"}}, {"type": "Feature", "geometry": {"type": "Polygon", "coordinates": [[[16.83957966670803, 48.25274131320127], [16.839577334384185, 48.25274569621399], [16.83957202321852, 48.252748715530764], [16.839565156333578, 48.25274956212811], [16.83955857370564, 48.25274800916094], [16.83955403914455, 48.252744472745555], [16.839552767682278, 48.25273990046161], [16.83955510000612, 48.25273551744889], [16.83956041117179, 48.25273249813211], [16.839567278056727, 48.25273165153477], [16.839573860684666, 48.25273320450194], [16.83957839524576, 48.25273674091733], [16.83957966670803, 48.25274131320127]]]}, "properties": {"timestamp": 37.9, "confidence": 0.662, "label": "unknown"}}, {"type": "Feature", "geometry": {"type": "Polygon", "coordinates": [[[16.83959839018108, 48.252738648435404], [16.83959605785724, 48.25274303144813], [16.83959074669157, 48.252746050764905], [16.839583879806632, 48.25274689736224], [16.839577297178696, 48.25274534439507], [16.8395727626176, 48.252741807979696], [16.83957149115533, 48.25273723569575], [16.839573823479174, 48.252732852683025], [16.83957913464484, 48.25272983336625], [16.83958600152978, 48.25272898676891], [16.839592584157717, 48.25273053973608], [16.839597118718814, 48.25273407615146], [16.83959839018108, 48.252738648435404]]]}, "properties": {"timestamp": 38.46, "confidence": 0.67, "label": "unknown"}}, {"type": "Feature", "geometry": {"type": "Polygon", "coordinates": [[[16.839616531025833, 48.25274805694417], [16.839614198701987, 48.252752439956886], [16.839608887536322, 48.252755459273665], [16.839602020651384, 48.252756305871], [16.839595438023444, 48.25275475290383], [16.83959090346235, 48.252751216488456], [16.83958963200008, 48.25274664420451], [16.839591964323926, 48.25274226119179], [16.83959727548959, 48.25273924187501], [16.83960414237453, 48.252738395277674], [16.83961072500247, 48.252739948244844], [16.839615259563562, 48.25274348466022], [16.839616531025833, 48.25274805694417]]]}, "properties": {"timestamp": 39.69, "confidence": 0.677, "label": "unknown"}}, {"type": "Feature", "geometry": {"type": "Polygon", "coordinates": [[[16.839661643652242, 48.252737279361774], [16.839659311328397, 48.2527416623745], [16.83965400016273, 48.252744681691276], [16.839647133277794, 48.252745528288614], [16.839640550649854, 48.252743975321444], [16.83963601608876, 48.252740438906066], [16.83963474462649, 48.25273586662212], [16.839637076950336, 48.252731483609395], [16.839642388116, 48.25272846429262], [16.83964925500094, 48.25272761769528], [16.83965583762888, 48.25272917066245], [16.83966037218997, 48.25273270707783], [16.839661643652242, 48.252737279361774]]]}, "properties": {"timestamp": 40.25, "confidence": 0.647, "label": "unknown"}}, {"type": "Feature", "geometry": {"type": "Polygon", "coordinates": [[[16.839689487897164, 48.25275511957967], [16.839687155573323, 48.25275950259239], [16.839681844407654, 48.25276252190917], [16.839674977522716, 48.25276336850651], [16.839668394894776, 48.25276181553934], [16.839663860333683, 48.25275827912396], [16.839662588871413, 48.25275370684001], [16.839664921195258, 48.25274932382729], [16.839670232360923, 48.25274630451052], [16.83967709924586, 48.25274545791317], [16.8396836818738, 48.25274701088034], [16.839688216434894, 48.252750547295726], [16.839689487897164, 48.25275511957967]]]}, "properties": {"timestamp": 41.76, "confidence": 0.772, "label": "unknown"}}, {"type": "Feature", "geometry": {"type": "Polygon", "coordinates": [[[16.83970597377146, 48.252736166436264], [16.839703641447617, 48.25274054944899], [16.839698330281948, 48.252743568765766], [16.83969146339701, 48.252744415363104], [16.83968488076907, 48.252742862395934], [16.839680346207977, 48.25273932598055], [16.839679074745707, 48.25273475369661], [16.839681407069552, 48.252730370683885], [16.839686718235217, 48.25272735136711], [16.839693585120155, 48.25272650476977], [16.839700167748095, 48.25272805773694], [16.839704702309188, 48.25273159415232], [16.83970597377146, 48.252736166436264]]]}, "properties": {"timestamp": 41.88, "confidence": 0.631, "label": "unknown"}}, {"type": "Feature", "geometry": {"type": "Polygon", "coordinates": [[[16.839735455122426, 48.25274843285728], [16.839733122798584, 48.252752815870004], [16.839727811632915, 48.25275583518678], [16.839720944747977, 48.25275668178412], [16.83971436212004, 48.25275512881695], [16.839709827558945, 48.25275159240157], [16.839708556096674, 48.252747020117624], [16.83971088842052, 48.2527426371049], [16.839716199586185, 48.25273961778813], [16.839723066471127, 48.252738771190785], [16.839729649099063, 48.252740324157955], [16.83973418366016, 48.25274386057334], [16.839735455122426, 48.25274843285728]]]}, "properties": {"timestamp": 43.55, "confidence": 0.657, "label": "unknown"}}, {"type": "Feature", "geometry": {"type": "Polygon", "coordinates": [[[16.839758267904667, 48.25274400905542], [16.839755935580822, 48.25274839206814], [16.839750624415156, 48.252751411384914], [16.839743757530215, 48.25275225798226], [16.83973717490228, 48.25275070501509], [16.839732640341186, 48.252747168599704], [16.839731368878915, 48.25274259631576], [16.839733701202757, 48.25273821330304], [16.839739012368426, 48.25273519398626], [16.839745879253364, 48.25273434738892], [16.8397524618813, 48.25273590035609], [16.839756996442397, 48.25273943677147], [16.839758267904667, 48.25274400905542]]]}, "properties": {"timestamp": 44.05, "confidence": 0.767, "label": "unknown"}}, {"type": "Feature", "geometry": {"type": "Polygon", "coordinates": [[[16.839817541763853, 48.252736104523514], [16.839815209440008, 48.25274048753624], [16.83980989827434, 48.252743506853015], [16.8398030313894, 48.25274435345035], [16.839796448761465, 48.25274280048318], [16.83979191420037, 48.252739264067806], [16.839790642738098, 48.25273469178386], [16.839792975061943, 48.252730308771135], [16.839798286227612, 48.25272728945436], [16.83980515311255, 48.25272644285702], [16.839811735740486, 48.25272799582419], [16.839816270301583, 48.25273153223957], [16.839817541763853, 48.252736104523514]]]}, "properties": {"timestamp": 45.75, "confidence": 0.761, "label": "unknown"}}, {"type": "Feature", "geometry": {"type": "Polygon", "coordinates": [[[16.839801820712527, 48.25275464373238], [16.839799488388685, 48.2527590267451], [16.839794177223016, 48.25276204606188], [16.839787310338078, 48.25276289265922], [16.839780727710142, 48.25276133969205], [16.839776193149046, 48.25275780327667], [16.839774921686775, 48.252753230992724], [16.83977725401062, 48.25274884798], [16.839782565176286, 48.25274582866323], [16.839789432061227, 48.252744982065884], [16.839796014689163, 48.252746535033054], [16.83980054925026, 48.25275007144844], [16.839801820712527, 48.25275464373238]]]}, "properties": {"timestamp": 45.94, "confidence": 0.632, "label": "unknown"}}, {"type": "Feature", "geometry": {"type": "Polygon", "coordinates": [[[16.839869143683732, 48.25274250191554], [16.839866811359887, 48.25274688492826], [16.83986150019422, 48.252749904245036], [16.83985463330928, 48.252750750842374], [16.839848050681343, 48.252749197875204], [16.839843516120247, 48.25274566145983], [16.83984224465798, 48.25274108917588], [16.83984457698182, 48.25273670616316], [16.83984988814749, 48.25273368684638], [16.83985675503243, 48.252732840249045], [16.839863337660365, 48.252734393216215], [16.83986787222146, 48.25273792963159], [16.839869143683732, 48.25274250191554]]]}, "properties": {"timestamp": 47.48, "confidence": 0.675, "label": "unknown"}}, {"type": "Feature", "geometry": {"type": "Polygon", "coordinates": [[[16.839863333822226, 48.25276340924992], [16.83986100149838, 48.252767792262645], [16.839855690332712, 48.252770811579424], [16.839848823447774, 48.25277165817676], [16.839842240819838, 48.25277010520959], [16.83983770625874, 48.252766568794215], [16.83983643479647, 48.252761996510266], [16.839838767120316, 48.25275761349754], [16.839844078285985, 48.25275459418077], [16.839850945170923, 48.252753747583434], [16.83985752779886, 48.2527553005506], [16.839862062359956, 48.25275883696598], [16.839863333822226, 48.25276340924992]]]}, "properties": {"timestamp": 47.6, "confidence": 0.612, "label": "unknown"}}, {"type": "Feature", "geometry": {"type": "Polygon", "coordinates": [[[16.839904050749535, 48.25275536887476], [16.839901718425693, 48.252759751887474], [16.839896407260024, 48.25276277120425], [16.839889540375086, 48.25276361780159], [16.83988295774715, 48.25276206483442], [16.839878423186054, 48.252758528419044], [16.839877151723783, 48.252753956135095], [16.83987948404763, 48.25274957312238], [16.839884795213294, 48.2527465538056], [16.839891662098236, 48.25274570720826], [16.83989824472617, 48.25274726017543], [16.839902779287268, 48.25275079659081], [16.839904050749535, 48.25275536887476]]]}, "properties": {"timestamp": 49.51, "confidence": 0.622, "label": "unknown"}}, {"type": "Feature", "geometry": {"type": "Polygon", "coordinates": [[[16.839941622943698, 48.252753536855366], [16.839939290619853, 48.25275791986809], [16.839933979454187, 48.25276093918486], [16.839927112569246, 48.252761785782205], [16.83992052994131, 48.252760232815035], [16.839915995380213, 48.25275669639965], [16.839914723917946, 48.25275212411571], [16.839917056241788, 48.252747741102986], [16.839922367407457, 48.25274472178621], [16.839929234292395, 48.25274387518887], [16.83993581692033, 48.25274542815604], [16.839940351481427, 48.252748964571424], [16.839941622943698, 48.252753536855366]]]}, "properties": {"timestamp": 49.84, "confidence": 0.701, "label": "unknown"}}, {"type": "Feature", "geometry": {"type": "Polygon", "coordinates": [[[16.83996373616369, 48.25277247392147], [16.839961403839844, 48.25277685693419], [16.83995609267418, 48.25277987625097], [16.839949225789237, 48.25278072284831], [16.8399426431613, 48.25277916988114], [16.839938108600208, 48.25277563346575], [16.839936837137937, 48.25277106118181], [16.83993916946178, 48.25276667816909], [16.839944480627448, 48.25276365885232], [16.839951347512386, 48.25276281225497], [16.839957930140326, 48.25276436522214], [16.83996246470142, 48.252767901637526], [16.83996373616369, 48.25277247392147]]]}, "properties": {"timestamp": 51.29, "confidence": 0.631, "label": "unknown"}}, {"type": "Feature", "geometry": {"type": "Polygon", "coordinates": [[[16.840001676965773, 48.252751526739296], [16.839999344641928, 48.25275590975202], [16.839994033476263, 48.25275892906879], [16.83998716659132, 48.252759775666135], [16.839980583963385, 48.252758222698965], [16.839976049402292, 48.25275468628358], [16.83997477794002, 48.25275011399964], [16.839977110263863, 48.252745730986916], [16.839982421429532, 48.252742711670145], [16.83998928831447, 48.2527418650728], [16.839995870942406, 48.25274341803997], [16.840000405503503, 48.252746954455354], [16.840001676965773, 48.252751526739296]]]}, "properties": {"timestamp": 51.62, "confidence": 0.741, "label": "unknown"}}, {"type": "Feature", "geometry": {"type": "Polygon", "coordinates": [[[16.840012888540393, 48.252763858250276], [16.84001055621655, 48.252768241263], [16.840005245050882, 48.25277126057977], [16.839998378165944, 48.252772107177115], [16.83999179553801, 48.252770554209945], [16.839987260976912, 48.25276701779456], [16.83998598951464, 48.25276244551062], [16.839988321838486, 48.2527580624979], [16.839993633004152, 48.252755043181125], [16.840000499889094, 48.25275419658378], [16.84000708251703, 48.25275574955095], [16.840011617078126, 48.252759285966334], [16.840012888540393, 48.252763858250276]]]}, "properties": {"timestamp": 53.16, "confidence": 0.723, "label": "unknown"}}, {"type": "Feature", "geometry": {"type": "Polygon", "coordinates": [[[16.84003881937309, 48.252760602596894], [16.840036487049247, 48.252764985609616], [16.840031175883578, 48.252768004926395], [16.84002430899864, 48.25276885152373], [16.8400177263707, 48.25276729855656], [16.840013191809607, 48.25276376214118], [16.840011920347337, 48.25275918985724], [16.840014252671182, 48.252754806844514], [16.840019563836847, 48.25275178752774], [16.840026430721785, 48.2527509409304], [16.840033013349725, 48.25275249389757], [16.840037547910818, 48.25275603031295], [16.84003881937309, 48.252760602596894]]]}, "properties": {"timestamp": 53.43, "confidence": 0.674, "label": "unknown"}}, {"type": "Feature", "geometry": {"type": "Polygon", "coordinates": [[[16.840080661059776, 48.25275929110488], [16.84007832873593, 48.2527636741176], [16.840073017570266, 48.252766693434374], [16.840066150685324, 48.25276754003172], [16.840059568057388, 48.25276598706455], [16.84005503349629, 48.252762450649165], [16.840053762034024, 48.25275787836522], [16.840056094357866, 48.2527534953525], [16.840061405523535, 48.25275047603573], [16.840068272408473, 48.252749629438384], [16.84007485503641, 48.252751182405554], [16.840079389597506, 48.25275471882094], [16.840080661059776, 48.25275929110488]]]}, "properties": {"timestamp": 55.23, "confidence": 0.774, "label": "unknown"}}, {"type": "Feature", "geometry": {"type": "Polygon", "coordinates": [[[16.840131666555827, 48.25288845491335], [16.84012933423198, 48.25289283792607], [16.840124023066316, 48.25289585724285], [16.84011715618138, 48.252896703840186], [16.84011057355344, 48.252895150873016], [16.840106038992346, 48.25289161445764], [16.840104767530075, 48.25288704217369], [16.84010709985392, 48.25288265916097], [16.840112411019586, 48.252879639844195], [16.840119277904524, 48.25287879324686], [16.840125860532464, 48.25288034621402], [16.840130395093556, 48.252883882629405], [16.840131666555827, 48.25288845491335]]]}, "properties": {"timestamp": 62.79, "confidence": 0.732, "label": "unknown"}}, {"type": "Feature", "geometry": {"type": "Polygon", "coordinates": [[[16.840174030282466, 48.25287169575639], [16.84017169795862, 48.25287607876911], [16.840166386792955, 48.25287909808589], [16.840159519908013, 48.25287994468323], [16.840152937280077, 48.25287839171606], [16.840148402718984, 48.25287485530068], [16.840147131256714, 48.25287028301673], [16.840149463580556, 48.25286590000401], [16.840154774746225, 48.25286288068724], [16.840161641631163, 48.2528620340899], [16.840168224259102, 48.252863587057064], [16.840172758820195, 48.25286712347245], [16.840174030282466, 48.25287169575639]]]}, "properties": {"timestamp": 64.09, "confidence": 0.757, "label": "unknown"}}, {"type": "Feature", "geometry": {"type": "Polygon", "coordinates": [[[16.840242155812735, 48.25285094965871], [16.84023982348889, 48.25285533267142], [16.840234512323224, 48.2528583519882], [16.840227645438283, 48.25285919858554], [16.840221062810347, 48.25285764561837], [16.84021652824925, 48.25285410920299], [16.840215256786983, 48.252849536919044], [16.840217589110825, 48.25284515390633], [16.840222900276494, 48.25284213458955], [16.840229767161432, 48.25284128799221], [16.840236349789368, 48.25284284095938], [16.840240884350465, 48.25284637737476], [16.840242155812735, 48.25285094965871]]]}, "properties": {"timestamp": 66.26, "confidence": 0.774, "label": "unknown"}}, {"type": "Feature", "geometry": {"type": "Polygon", "coordinates": [[[16.840310328219402, 48.252833832035996], [16.840307995895557, 48.25283821504871], [16.840302684729892, 48.25284123436549], [16.84029581784495, 48.25284208096283], [16.840289235217014, 48.25284052799566], [16.840284700655918, 48.25283699158028], [16.84028342919365, 48.25283241929633], [16.840285761517492, 48.25282803628362], [16.84029107268316, 48.25282501696684], [16.8402979395681, 48.2528241703695], [16.840304522196035, 48.25282572333667], [16.840309056757132, 48.25282925975205], [16.840310328219402, 48.252833832035996]]]}, "properties": {"timestamp": 67.86, "confidence": 0.7, "label": "unknown"}}, {"type": "Feature", "geometry": {"type": "Polygon", "coordinates": [[[16.84039570243841, 48.25280503425837], [16.84039337011457, 48.25280941727109], [16.8403880589489, 48.25281243658787], [16.840381192063962, 48.252813283185205], [16.840374609436026, 48.252811730218035], [16.84037007487493, 48.25280819380266], [16.84036880341266, 48.25280362151871], [16.840371135736504, 48.25279923850599], [16.84037644690217, 48.252796219189214], [16.84038331378711, 48.252795372591876], [16.840389896415047, 48.252796925559046], [16.84039443097614, 48.252800461974424], [16.84039570243841, 48.25280503425837]]]}, "properties": {"timestamp": 70.23, "confidence": 0.757, "label": "unknown"}}, {"type": "Feature", "geometry": {"type": "Polygon", "coordinates": [[[16.840123149807976, 48.25283021680613], [16.840120817484134, 48.252834599818854], [16.840115506318465, 48.252837619135626], [16.840108639433527, 48.25283846573297], [16.84010205680559, 48.2528369127658], [16.840097522244495, 48.25283337635042], [16.840096250782224, 48.252828804066475], [16.84009858310607, 48.25282442105375], [16.840103894271735, 48.25282140173697], [16.840110761156676, 48.252820555139635], [16.840117343784613, 48.252822108106805], [16.84012187834571, 48.25282564452218], [16.840123149807976, 48.25283021680613]]]}, "properties": {"timestamp": 109.79, "confidence": 0.606, "label": "unknown"}}, {"type": "Feature", "geometry": {"type": "Polygon", "coordinates": [[[16.840464776117802, 48.252800085502905], [16.840462443793957, 48.25280446851563], [16.840457132628288, 48.2528074878324], [16.84045026574335, 48.25280833442974], [16.840443683115414, 48.252806781462574], [16.840439148554317, 48.25280324504719], [16.840437877092047, 48.25279867276325], [16.840440209415892, 48.252794289750526], [16.84044552058156, 48.25279127043375], [16.8404523874665, 48.25279042383641], [16.840458970094435, 48.25279197680358], [16.84046350465553, 48.252795513218956], [16.840464776117802, 48.252800085502905]]]}, "properties": {"timestamp": 110.08, "confidence": 0.665, "label": "unknown"}}, {"type": "Feature", "geometry": {"type": "Polygon", "coordinates": [[[16.840058648672873, 48.25281375263743], [16.840056316349028, 48.25281813565015], [16.840051005183362, 48.252821154966924], [16.84004413829842, 48.25282200156426], [16.840037555670484, 48.25282044859709], [16.840033021109388, 48.252816912181714], [16.84003174964712, 48.252812339897766], [16.840034081970963, 48.25280795688505], [16.84003939313663, 48.25280493756827], [16.84004626002157, 48.25280409097093], [16.840052842649506, 48.2528056439381], [16.840057377210602, 48.25280918035348], [16.840058648672873, 48.25281375263743]]]}, "properties": {"timestamp": 111.94, "confidence": 0.683, "label": "unknown"}}, {"type": "Feature", "geometry": {"type": "Polygon", "coordinates": [[[16.840369183541597, 48.252787155418176], [16.840366851217755, 48.2527915384309], [16.840361540052086, 48.25279455774767], [16.84035467316715, 48.25279540434501], [16.840348090539212, 48.25279385137784], [16.840343555978116, 48.25279031496246], [16.840342284515845, 48.25278574267852], [16.84034461683969, 48.252781359665796], [16.840349928005356, 48.25277834034902], [16.840356794890297, 48.25277749375168], [16.840363377518234, 48.25277904671885], [16.84036791207933, 48.25278258313423], [16.840369183541597, 48.252787155418176]]]}, "properties": {"timestamp": 112.35, "confidence": 0.641, "label": "unknown"}}, {"type": "Feature", "geometry": {"type": "Polygon", "coordinates": [[[16.83996616334742, 48.25280069958511], [16.839963831023574, 48.25280508259783], [16.83995851985791, 48.25280810191461], [16.839951652972967, 48.25280894851195], [16.83994507034503, 48.25280739554478], [16.83994053578394, 48.25280385912939], [16.839939264321668, 48.25279928684545], [16.83994159664551, 48.25279490383273], [16.83994690781118, 48.25279188451596], [16.839953774696117, 48.25279103791861], [16.839960357324056, 48.25279259088578], [16.83996489188515, 48.25279612730117], [16.83996616334742, 48.25280069958511]]]}, "properties": {"timestamp": 114.06, "confidence": 0.769, "label": "unknown"}}, {"type": "Feature", "geometry": {"type": "Polygon", "coordinates": [[[16.8402562243503, 48.25277129948869], [16.840253892026453, 48.252775682501415], [16.840248580860788, 48.252778701818194], [16.84024171397585, 48.25277954841553], [16.84023513134791, 48.25277799544836], [16.840230596786817, 48.252774459032985], [16.840229325324547, 48.252769886749036], [16.840231657648392, 48.25276550373631], [16.840236968814057, 48.25276248441954], [16.840243835698995, 48.252761637822196], [16.840250418326935, 48.252763190789366], [16.840254952888028, 48.25276672720475], [16.8402562243503, 48.25277129948869]]]}, "properties": {"timestamp": 114.3, "confidence": 0.609, "label": "unknown"}}, {"type": "Feature", "geometry": {"type": "Polygon", "coordinates": [[[16.839893379967535, 48.25278775520435], [16.839891047643693, 48.25279213821707], [16.839885736478024, 48.252795157533846], [16.839878869593086, 48.252796004131184], [16.839872286965146, 48.252794451164014], [16.839867752404054, 48.25279091474864], [16.839866480941783, 48.25278634246469], [16.83986881326563, 48.25278195945197], [16.839874124431294, 48.252778940135194], [16.839880991316235, 48.252778093537856], [16.83988757394417, 48.252779646505026], [16.839892108505264, 48.2527831829204], [16.839893379967535, 48.25278775520435]]]}, "properties": {"timestamp": 115.95, "confidence": 0.623, "label": "unknown"}}, {"type": "Feature", "geometry": {"type": "Polygon", "coordinates": [[[16.840174974015977, 48.252751585810834], [16.84017264169213, 48.25275596882356], [16.840167330526466, 48.25275898814033], [16.840160463641528, 48.25275983473767], [16.84015388101359, 48.252758281770504], [16.840149346452495, 48.25275474535512], [16.840148074990225, 48.25275017307118], [16.84015040731407, 48.252745790058455], [16.840155718479735, 48.252742770741676], [16.840162585364673, 48.25274192414434], [16.840169167992613, 48.25274347711151], [16.840173702553706, 48.252747013526886], [16.840174974015977, 48.252751585810834]]]}, "properties": {"timestamp": 116.35, "confidence": 0.755, "label": "unknown"}}, {"type": "Feature", "geometry": {"type": "Polygon", "coordinates": [[[16.83980405535407, 48.25277414004088], [16.839801723030224, 48.2527785230536], [16.839796411864558, 48.25278154237038], [16.839789544979617, 48.25278238896772], [16.83978296235168, 48.25278083600055], [16.839778427790584, 48.25277729958517], [16.839777156328317, 48.25277272730122], [16.83977948865216, 48.2527683442885], [16.839784799817828, 48.252765324971726], [16.839791666702766, 48.25276447837438], [16.839798249330702, 48.25276603134155], [16.8398027838918, 48.252769567756935], [16.83980405535407, 48.25277414004088]]]}, "properties": {"timestamp": 118.28, "confidence": 0.608, "label": "unknown"}}, {"type": "Feature", "geometry": {"type": "Polygon", "coordinates": [[[16.840078486544865, 48.25275738416148], [16.840076154221023, 48.2527617671742], [16.840070843055354, 48.25276478649098], [16.840063976170416, 48.252765633088316], [16.84005739354248, 48.252764080121146], [16.840052858981384, 48.25276054370577], [16.840051587519113, 48.25275597142182], [16.84005391984296, 48.2527515884091], [16.840059231008624, 48.252748569092326], [16.840066097893565, 48.25274772249499], [16.8400726805215, 48.25274927546216], [16.840077215082598, 48.252752811877535], [16.840078486544865, 48.25275738416148]]]}, "properties": {"timestamp": 118.38, "confidence": 0.703, "label": "unknown"}}, {"type": "Feature", "geometry": {"type": "Polygon", "coordinates": [[[16.83973262387798, 48.25276554199764], [16.839730291554133, 48.252769925010355], [16.839724980388468, 48.252772944327134], [16.839718113503526, 48.25277379092447], [16.83971153087559, 48.2527722379573], [16.839706996314494, 48.252768701541925], [16.839705724852227, 48.252764129257976], [16.839708057176068, 48.25275974624526], [16.839713368341737, 48.25275672692848], [16.839720235226675, 48.252755880331144], [16.83972681785461, 48.252757433298314], [16.839731352415708, 48.25276096971369], [16.83973262387798, 48.25276554199764]]]}, "properties": {"timestamp": 119.91, "confidence": 0.661, "label": "unknown"}}, {"type": "Feature", "geometry": {"type": "Polygon", "coordinates": [[[16.83997822335847, 48.25273844354436], [16.83997589103463, 48.25274282655708], [16.83997057986896, 48.25274584587386], [16.839963712984023, 48.2527466924712], [16.839957130356083, 48.25274513950403], [16.83995259579499, 48.25274160308865], [16.83995132433272, 48.2527370308047], [16.839953656656565, 48.25273264779198], [16.83995896782223, 48.25272962847521], [16.83996583470717, 48.25272878187787], [16.839972417335108, 48.25273033484504], [16.8399769518962, 48.25273387126042], [16.83997822335847, 48.25273844354436]]]}, "properties": {"timestamp": 120.53, "confidence": 0.719, "label": "unknown"}}, {"type": "Feature", "geometry": {"type": "Polygon", "coordinates": [[[16.83967241835823, 48.25275625759599], [16.839670086034385, 48.252760640608706], [16.83966477486872, 48.252763659925485], [16.839657907983778, 48.25276450652282], [16.83965132535584, 48.25276295355565], [16.839646790794745, 48.252759417140275], [16.83964551933248, 48.25275484485633], [16.83964785165632, 48.25275046184361], [16.83965316282199, 48.25274744252683], [16.839660029706927, 48.252746595929494], [16.839666612334863, 48.252748148896664], [16.83967114689596, 48.25275168531204], [16.83967241835823, 48.25275625759599]]]}, "properties": {"timestamp": 121.81, "confidence": 0.728, "label": "unknown"}}, {"type": "Feature", "geometry": {"type": "Polygon", "coordinates": [[[16.839892830997606, 48.25273926821709], [16.839890498673764, 48.25274365122981], [16.839885187508095, 48.252746670546586], [16.839878320623157, 48.25274751714392], [16.83987173799522, 48.25274596417675], [16.839867203434125, 48.252742427761376], [16.839865931971854, 48.25273785547743], [16.8398682642957, 48.25273347246471], [16.839873575461365, 48.25273045314793], [16.839880442346306, 48.252729606550595], [16.839887024974242, 48.252731159517765], [16.83989155953534, 48.25273469593314], [16.839892830997606, 48.25273926821709]]]}, "properties": {"timestamp": 122.41, "confidence": 0.705, "label": "unknown"}}, {"type": "Feature", "geometry": {"type": "Polygon", "coordinates": [[[16.839602069376447, 48.252744294361335], [16.839599737052602, 48.25274867737405], [16.839594425886936, 48.25275169669083], [16.839587559001995, 48.25275254328817], [16.83958097637406, 48.252750990321], [16.839576441812962, 48.25274745390562], [16.839575170350695, 48.25274288162167], [16.839577502674537, 48.252738498608956], [16.839582813840206, 48.25273547929218], [16.839589680725144, 48.25273463269484], [16.83959626335308, 48.25273618566201], [16.839600797914176, 48.252739722077386], [16.839602069376447, 48.252744294361335]]]}, "properties": {"timestamp": 123.56, "confidence": 0.743, "label": "unknown"}}, {"type": "Feature", "geometry": {"type": "Polygon", "coordinates": [[[16.839807758349266, 48.252721287063174], [16.83980542602542, 48.2527256700759], [16.839800114859756, 48.25272868939267], [16.839793247974814, 48.25272953599001], [16.839786665346878, 48.252727983022844], [16.839782130785782, 48.25272444660746], [16.839780859323515, 48.25271987432352], [16.839783191647356, 48.252715491310795], [16.839788502813025, 48.252712471994016], [16.839795369697963, 48.25271162539668], [16.8398019523259, 48.25271317836385], [16.839806486886996, 48.252716714779226], [16.839807758349266, 48.252721287063174]]]}, "properties": {"timestamp": 124.09, "confidence": 0.712, "label": "unknown"}}, {"type": "Feature", "geometry": {"type": "Polygon", "coordinates": [[[16.83952398423766, 48.25272291398846], [16.839521651913817, 48.25272729700117], [16.839516340748148, 48.25273031631795], [16.83950947386321, 48.25273116291529], [16.839502891235274, 48.25272960994812], [16.839498356674177, 48.25272607353274], [16.839497085211907, 48.25272150124879], [16.83949941753575, 48.25271711823608], [16.839504728701417, 48.2527140989193], [16.83951159558636, 48.25271325232196], [16.839518178214295, 48.25271480528913], [16.83952271277539, 48.25271834170451], [16.83952398423766, 48.25272291398846]]]}, "properties": {"timestamp": 125.36, "confidence": 0.67, "label": "unknown"}}, {"type": "Feature", "geometry": {"type": "Polygon", "coordinates": [[[16.839717692175363, 48.25272347541182], [16.839715359851517, 48.25272785842454], [16.839710048685852, 48.25273087774132], [16.83970318180091, 48.25273172433866], [16.839696599172974, 48.25273017137149], [16.839692064611878, 48.25272663495611], [16.83969079314961, 48.25272206267216], [16.839693125473453, 48.25271767965944], [16.83969843663912, 48.25271466034267], [16.83970530352406, 48.25271381374533], [16.839711886151996, 48.25271536671249], [16.839716420713092, 48.25271890312788], [16.839717692175363, 48.25272347541182]]]}, "properties": {"timestamp": 126.15, "confidence": 0.697, "label": "unknown"}}, {"type": "Feature", "geometry": {"type": "Polygon", "coordinates": [[[16.8394717743424, 48.25272339572761], [16.839469442018554, 48.25272777874033], [16.83946413085289, 48.25273079805711], [16.839457263967947, 48.252731644654446], [16.83945068134001, 48.252730091687276], [16.839446146778915, 48.2527265552719], [16.839444875316648, 48.25272198298795], [16.83944720764049, 48.25271759997523], [16.83945251880616, 48.252714580658456], [16.839459385691097, 48.25271373406112], [16.839465968319033, 48.25271528702829], [16.83947050288013, 48.252718823443665], [16.8394717743424, 48.25272339572761]]]}, "properties": {"timestamp": 126.96, "confidence": 0.657, "label": "unknown"}}, {"type": "Feature", "geometry": {"type": "Polygon", "coordinates": [[[16.839611470163426, 48.252694252629105], [16.83960913783958, 48.25269863564183], [16.839603826673915, 48.25270165495861], [16.839596959788977, 48.252702501555945], [16.839590377161038, 48.252700948588775], [16.839585842599945, 48.2526974121734], [16.839584571137674, 48.25269283988945], [16.83958690346152, 48.252688456876726], [16.839592214627185, 48.252685437559954], [16.839599081512123, 48.25268459096261], [16.839605664140063, 48.25268614392978], [16.839610198701155, 48.25268968034516], [16.839611470163426, 48.252694252629105]]]}, "properties": {"timestamp": 128.1, "confidence": 0.669, "label": "unknown"}}, {"type": "Feature", "geometry": {"type": "Polygon", "coordinates": [[[16.83939391888393, 48.252711976757446], [16.839391586560083, 48.25271635977017], [16.839386275394418, 48.25271937908695], [16.83937940850948, 48.252720225684286], [16.83937282588154, 48.252718672717116], [16.839368291320447, 48.25271513630174], [16.839367019858177, 48.25271056401779], [16.839369352182022, 48.25270618100507], [16.839374663347687, 48.252703161688295], [16.839381530232625, 48.25270231509095], [16.839388112860565, 48.25270386805812], [16.839392647421658, 48.252707404473504], [16.83939391888393, 48.252711976757446]]]}, "properties": {"timestamp": 128.6, "confidence": 0.609, "label": "unknown"}}, {"type": "Feature", "geometry": {"type": "Polygon", "coordinates": [[[16.839511067227804, 48.25269604183695], [16.83950873490396, 48.25270042484967], [16.839503423738293, 48.25270344416644], [16.83949655685335, 48.25270429076379], [16.839489974225415, 48.25270273779662], [16.839485439664323, 48.25269920138123], [16.839484168202052, 48.25269462909729], [16.839486500525894, 48.25269024608457], [16.839491811691563, 48.25268722676779], [16.8394986785765, 48.25268638017045], [16.839505261204437, 48.25268793313762], [16.839509795765533, 48.252691469553], [16.839511067227804, 48.25269604183695]]]}, "properties": {"timestamp": 130.12, "confidence": 0.664, "label": "unknown"}}, {"type": "Feature", "geometry": {"type": "Polygon", "coordinates": [[[16.839326330428985, 48.25270294088568], [16.83932399810514, 48.2527073238984], [16.839318686939475, 48.25271034321518], [16.839311820054533, 48.252711189812516], [16.839305237426597, 48.252709636845346], [16.8393007028655, 48.25270610042997], [16.839299431403234, 48.25270152814602], [16.839301763727075, 48.252697145133304], [16.839307074892744, 48.252694125816525], [16.839313941777682, 48.25269327921919], [16.83932052440562, 48.25269483218636], [16.839325058966715, 48.252698368601735], [16.839326330428985, 48.25270294088568]]]}, "properties": {"timestamp": 130.39, "confidence": 0.642, "label": "unknown"}}, {"type": "Feature", "geometry": {"type": "Polygon", "coordinates": [[[16.839410974272127, 48.252686638242494], [16.839408641948282, 48.25269102125522], [16.839403330782616, 48.25269404057199], [16.839396463897675, 48.25269488716933], [16.83938988126974, 48.252693334202164], [16.839385346708642, 48.25268979778678], [16.839384075246375, 48.25268522550284], [16.839386407570217, 48.252680842490115], [16.839391718735886, 48.252677823173336], [16.839398585620824, 48.252676976576], [16.83940516824876, 48.25267852954317], [16.839409702809856, 48.252682065958545], [16.839410974272127, 48.252686638242494]]]}, "properties": {"timestamp": 132.51, "confidence": 0.622, "label": "unknown"}}, {"type": "Feature", "geometry": {"type": "Polygon", "coordinates": [[[16.839251028018158, 48.2526826850129], [16.839248695694312, 48.25268706802562], [16.839243384528647, 48.252690087342394], [16.839236517643705, 48.25269093393974], [16.83922993501577, 48.25268938097257], [16.839225400454676, 48.252685844557185], [16.839224128992406, 48.25268127227324], [16.839226461316247, 48.25267688926052], [16.839231772481916, 48.25267386994374], [16.839238639366854, 48.252673023346404], [16.839245221994794, 48.252674576313574], [16.839249756555887, 48.25267811272895], [16.839251028018158, 48.2526826850129]]]}, "properties": {"timestamp": 132.72, "confidence": 0.739, "label": "unknown"}}, {"type": "Feature", "geometry": {"type": "Polygon", "coordinates": [[[16.839165812489128, 48.252669719359886], [16.839163480165283, 48.25267410237261], [16.839158168999617, 48.25267712168938], [16.839151302114676, 48.252677968286726], [16.83914471948674, 48.252676415319556], [16.839140184925643, 48.25267287890417], [16.839138913463376, 48.25266830662023], [16.839141245787218, 48.25266392360751], [16.839146556952887, 48.252660904290735], [16.839153423837825, 48.25266005769339], [16.83916000646576, 48.25266161066056], [16.839164541026857, 48.252665147075945], [16.839165812489128, 48.252669719359886]]]}, "properties": {"timestamp": 134.64, "confidence": 0.656, "label": "unknown"}}, {"type": "Feature", "geometry": {"type": "Polygon", "coordinates": [[[16.839299420205357, 48.25266985070703], [16.839297087881516, 48.25267423371975], [16.839291776715847, 48.25267725303653], [16.83928490983091, 48.25267809963387], [16.839278327202972, 48.2526765466667], [16.839273792641876, 48.25267301025132], [16.839272521179605, 48.25266843796737], [16.83927485350345, 48.25266405495465], [16.839280164669116, 48.25266103563788], [16.839287031554058, 48.25266018904053], [16.839293614181994, 48.2526617420077], [16.839298148743087, 48.25266527842309], [16.839299420205357, 48.25266985070703]]]}, "properties": {"timestamp": 134.82, "confidence": 0.798, "label": "unknown"}}, {"type": "Feature", "geometry": {"type": "Polygon", "coordinates": [[[16.839090256178594, 48.25266304216857], [16.83908792385475, 48.252667425181286], [16.839082612689083, 48.252670444498065], [16.83907574580414, 48.2526712910954], [16.839069163176205, 48.25266973812823], [16.839064628615112, 48.252666201712856], [16.839063357152842, 48.25266162942891], [16.839065689476683, 48.25265724641619], [16.839071000642353, 48.25265422709941], [16.83907786752729, 48.252653380502075], [16.83908445015523, 48.252654933469245], [16.839088984716323, 48.25265846988462], [16.839090256178594, 48.25266304216857]]]}, "properties": {"timestamp": 136.31, "confidence": 0.786, "label": "unknown"}}, {"type": "Feature", "geometry": {"type": "Polygon", "coordinates": [[[16.839186325674554, 48.25265932735079], [16.839183993350712, 48.252663710363514], [16.839178682185043, 48.252666729680286], [16.839171815300105, 48.252667576277624], [16.83916523267217, 48.25266602331046], [16.839160698111073, 48.252662486895076], [16.839159426648802, 48.252657914611135], [16.839161758972647, 48.25265353159841], [16.839167070138313, 48.25265051228163], [16.839173937023254, 48.252649665684295], [16.83918051965119, 48.252651218651465], [16.839185054212287, 48.25265475506684], [16.839186325674554, 48.25265932735079]]]}, "properties": {"timestamp": 137.13, "confidence": 0.658, "label": "unknown"}}, {"type": "Feature", "geometry": {"type": "Polygon", "coordinates": [[[16.839017129804933, 48.25264472134306], [16.839014797481088, 48.252649104355775], [16.839009486315422, 48.252652123672554], [16.83900261943048, 48.25265297026989], [16.838996036802545, 48.25265141730272], [16.83899150224145, 48.252647880887345], [16.83899023077918, 48.252643308603396], [16.838992563103023, 48.25263892559068], [16.838997874268692, 48.2526359062739], [16.83900474115363, 48.252635059676564], [16.839011323781566, 48.252636612643734], [16.839015858342663, 48.25264014905911], [16.839017129804933, 48.25264472134306]]]}, "properties": {"timestamp": 138.46, "confidence": 0.726, "label": "unknown"}}, {"type": "Feature", "geometry": {"type": "Polygon", "coordinates": [[[16.839105431015536, 48.25264982541934], [16.83910309869169, 48.25265420843206], [16.839097787526025, 48.25265722774884], [16.839090920641087, 48.25265807434618], [16.839084338013148, 48.25265652137901], [16.839079803452055, 48.25265298496363], [16.839078531989784, 48.25264841267968], [16.83908086431363, 48.25264402966696], [16.839086175479295, 48.25264101035019], [16.839093042364233, 48.25264016375285], [16.839099624992173, 48.252641716720014], [16.839104159553266, 48.2526452531354], [16.839105431015536, 48.25264982541934]]]}, "properties": {"timestamp": 139.14, "confidence": 0.636, "label": "unknown"}}, {"type": "Feature", "geometry": {"type": "Polygon", "coordinates": [[[16.838929429214115, 48.25263872139467], [16.83892709689027, 48.25264310440738], [16.838921785724605, 48.25264612372416], [16.838914918839663, 48.2526469703215], [16.838908336211727, 48.25264541735433], [16.83890380165063, 48.25264188093895], [16.838902530188363, 48.252637308655004], [16.838904862512205, 48.25263292564229], [16.838910173677874, 48.25262990632551], [16.838917040562812, 48.25262905972817], [16.838923623190748, 48.25263061269534], [16.838928157751845, 48.25263414911072], [16.838929429214115, 48.25263872139467]]]}, "properties": {"timestamp": 140.43, "confidence": 0.686, "label": "unknown"}}, {"type": "Feature", "geometry": {"type": "Polygon", "coordinates": [[[16.839004603751835, 48.25263920853222], [16.839002271427994, 48.252643591544945], [16.838996960262325, 48.25264661086172], [16.838990093377387, 48.25264745745906], [16.83898351074945, 48.25264590449189], [16.838978976188354, 48.25264236807651], [16.838977704726084, 48.252637795792566], [16.83898003704993, 48.25263341277984], [16.838985348215594, 48.252630393463065], [16.838992215100536, 48.25262954686573], [16.838998797728472, 48.2526310998329], [16.83900333228957, 48.25263463624828], [16.839004603751835, 48.25263920853222]]]}, "properties": {"timestamp": 141.24, "confidence": 0.799, "label": "unknown"}}, {"type": "Feature", "geometry": {"type": "Polygon", "coordinates": [[[16.83890090911371, 48.25263670441308], [16.838898576789866, 48.2526410874258], [16.8388932656242, 48.25264410674257], [16.83888639873926, 48.25264495333991], [16.838879816111323, 48.25264340037274], [16.838875281550227, 48.25263986395736], [16.83887401008796, 48.25263529167342], [16.8388763424118, 48.2526309086607], [16.83888165357747, 48.25262788934392], [16.838888520462408, 48.25262704274658], [16.838895103090344, 48.25262859571375], [16.83889963765144, 48.25263213212913], [16.83890090911371, 48.25263670441308]]]}, "properties": {"timestamp": 143.35, "confidence": 0.758, "label": "unknown"}}]}